{"type": "FeatureCollection", "features": [ {"type": "Feature", "properties": {"norad_id": 66346, "name": "STARLINK-35482", "group": "last-30-days", "lat": 35.6039964446867, "lon": 160.26861568707318, "alt_km": 417.6118280319506, "timestamp": "2025-12-04T21:36:14.650620+00:00", "meta": {"OBJECT_NAME": "STARLINK-35482", "OBJECT_ID": "2025-253AD", "EPOCH": "2025-12-04T14:53:22.258464", "MEAN_MOTION": 15.48487181, "ECCENTRICITY": 0.00014005, "INCLINATION": 43.0009, "RA_OF_ASC_NODE": 32.1081, "ARG_OF_PERICENTER": 343.3671, "MEAN_ANOMALY": 16.7143, "EPHEMERIS_TYPE": 0, "CLASSIFICATION_TYPE": "U", "NORAD_CAT_ID": 66346, "ELEMENT_SET_NO": 999, "REV_AT_EPOCH": 567, "BSTAR": -0.016767865, "MEAN_MOTION_DOT": -0.00834948, "MEAN_MOTION_DDOT": 0}, "tle": {"line1": "1 66346U 25253AD  25338.62039651 -.00834948  00000+0 -16768-1 0  9991", "line2": "2 66346  43.0009  32.1081 0001400 343.3671  16.7143 15.48487181  5677"}}, "geometry": {"type": "Point", "coordinates": [160.26861568707318, 35.6039964446867]}}, {"type": "Feature", "properties": {"norad_id": 66347, "name": "STARLINK-35438", "group": "last-30-days", "lat": 31.399163975948763, "lon": 169.5346208111117, "alt_km": 410.4803838833059, "timestamp": "2025-12-04T21:36:14.650631+00:00", "meta": {"OBJECT_NAME": "STARLINK-35438", "OBJECT_ID": "2025-253AE", "EPOCH": "2025-12-04T13:18:57.529728", "MEAN_MOTION": 15.50539833, "ECCENTRICITY": 0.00012027, "INCLINATION": 43.0005, "RA_OF_ASC_NODE": 32.4757, "ARG_OF_PERICENTER": 280.616, "MEAN_ANOMALY": 79.4565, "EPHEMERIS_TYPE": 0, "CLASSIFICATION_TYPE": "U", "NORAD_CAT_ID": 66347, "ELEMENT_SET_NO": 999, "REV_AT_EPOCH": 566, "BSTAR": 0.003272689, "MEAN_MOTION_DOT": 0.00196269, "MEAN_MOTION_DDOT": 0}, "tle": {"line1": "1 66347U 25253AE  25338.55483252  .00196269  00000+0  32727-2 0  9993", "line2": "2 66347  43.0005  32.4757 0001202 280.6160  79.4565 15.50539833  5661"}}, "geometry": {"type": "Point", "coordinates": [169.5346208111117, 31.399163975948763]}}, {"type": "Feature", "properties": {"norad_id": 66348, "name": "STARLINK-35849", "group": "last-30-days", "lat": -4.486299344836826, "lon": -49.23910461094266, "alt_km": 398.30876859883756, "timestamp": "2025-12-04T21:36:14.650642+00:00", "meta": {"OBJECT_NAME": "STARLINK-35849", "OBJECT_ID": "2025-254A", "EPOCH": "2025-12-04T14:00:01.000224", "MEAN_MOTION": 15.58278351, "ECCENTRICITY": 0.00011376, "INCLINATION": 53.159, "RA_OF_ASC_NODE": 315.6675, "ARG_OF_PERICENTER": 71.2619, "MEAN_ANOMALY": 305.7461, "EPHEMERIS_TYPE": 0, "CLASSIFICATION_TYPE": "U", "NORAD_CAT_ID": 66348, "ELEMENT_SET_NO": 999, "REV_AT_EPOCH": 561, "BSTAR": -0.030873623, "MEAN_MOTION_DOT": -0.02118146, "MEAN_MOTION_DDOT": 0}, "tle": {"line1": "1 66348U 25254A   25338.58334491 -.02118146  00000+0 -30874-1 0  9990", "line2": "2 66348  53.1590 315.6675 0001137  71.2619 305.7461 15.58278351  5616"}}, "geometry": {"type": "Point", "coordinates": [-49.23910461094266, -4.486299344836826]}}, {"type": "Feature", "properties": {"norad_id": 66349, "name": "STARLINK-35848", "group": "last-30-days", "lat": -2.954735849625614, "lon": -48.08878065640215, "alt_km": 398.0927568603811, "timestamp": "2025-12-04T21:36:14.650653+00:00", "meta": {"OBJECT_NAME": "STARLINK-35848", "OBJECT_ID": "2025-254B", "EPOCH": "2025-12-04T14:00:01.000224", "MEAN_MOTION": 15.58277176, "ECCENTRICITY": 0.000117, "INCLINATION": 53.1591, "RA_OF_ASC_NODE": 315.6632, "ARG_OF_PERICENTER": 71.5284, "MEAN_ANOMALY": 307.3974, "EPHEMERIS_TYPE": 0, "CLASSIFICATION_TYPE": "U", "NORAD_CAT_ID": 66349, "ELEMENT_SET_NO": 999, "REV_AT_EPOCH": 561, "BSTAR": -0.030860655, "MEAN_MOTION_DOT": -0.02117291, "MEAN_MOTION_DDOT": 0}, "tle": {"line1": "1 66349U 25254B   25338.58334491 -.02117291  00000+0 -30861-1 0  9997", "line2": "2 66349  53.1591 315.6632 0001170  71.5284 307.3974 15.58277176  5610"}}, "geometry": {"type": "Point", "coordinates": [-48.08878065640215, -2.954735849625614]}}, {"type": "Feature", "properties": {"norad_id": 66350, "name": "STARLINK-35829", "group": "last-30-days", "lat": -1.421743881715387, "lon": -46.94129006494074, "alt_km": 397.9602947072008, "timestamp": "2025-12-04T21:36:14.650663+00:00", "meta": {"OBJECT_NAME": "STARLINK-35829", "OBJECT_ID": "2025-254C", "EPOCH": "2025-12-04T14:00:01.000224", "MEAN_MOTION": 15.58271364, "ECCENTRICITY": 0.00011668, "INCLINATION": 53.1589, "RA_OF_ASC_NODE": 315.6591, "ARG_OF_PERICENTER": 78.9004, "MEAN_ANOMALY": 301.9459, "EPHEMERIS_TYPE": 0, "CLASSIFICATION_TYPE": "U", "NORAD_CAT_ID": 66350, "ELEMENT_SET_NO": 999, "REV_AT_EPOCH": 561, "BSTAR": -0.030758357, "MEAN_MOTION_DOT": -0.02110627, "MEAN_MOTION_DDOT": 0}, "tle": {"line1": "1 66350U 25254C   25338.58334491 -.02110627  00000+0 -30758-1 0  9990", "line2": "2 66350  53.1589 315.6591 0001166  78.9004 301.9459 15.58271364  5610"}}, "geometry": {"type": "Point", "coordinates": [-46.94129006494074, -1.421743881715387]}}, {"type": "Feature", "properties": {"norad_id": 66351, "name": "STARLINK-35828", "group": "last-30-days", "lat": 0.11089986439123453, "lon": -45.79570644070677, "alt_km": 397.7480255414039, "timestamp": "2025-12-04T21:36:14.650673+00:00", "meta": {"OBJECT_NAME": "STARLINK-35828", "OBJECT_ID": "2025-254D", "EPOCH": "2025-12-04T14:00:01.000224", "MEAN_MOTION": 15.58270308, "ECCENTRICITY": 0.00011276, "INCLINATION": 53.1589, "RA_OF_ASC_NODE": 315.6553, "ARG_OF_PERICENTER": 80.5994, "MEAN_ANOMALY": 302.1604, "EPHEMERIS_TYPE": 0, "CLASSIFICATION_TYPE": "U", "NORAD_CAT_ID": 66351, "ELEMENT_SET_NO": 999, "REV_AT_EPOCH": 558, "BSTAR": -0.030660332, "MEAN_MOTION_DOT": -0.02104536, "MEAN_MOTION_DDOT": 0}, "tle": {"line1": "1 66351U 25254D   25338.58334491 -.02104536  00000+0 -30660-1 0  9995", "line2": "2 66351  53.1589 315.6553 0001127  80.5994 302.1604 15.58270308  5581"}}, "geometry": {"type": "Point", "coordinates": [-45.79570644070677, 0.11089986439123453]}}, {"type": "Feature", "properties": {"norad_id": 66352, "name": "STARLINK-35850", "group": "last-30-days", "lat": 1.6469092540936412, "lon": -44.64824407613188, "alt_km": 397.43803689321066, "timestamp": "2025-12-04T21:36:14.650683+00:00", "meta": {"OBJECT_NAME": "STARLINK-35850", "OBJECT_ID": "2025-254E", "EPOCH": "2025-12-04T14:00:01.000224", "MEAN_MOTION": 15.58272999, "ECCENTRICITY": 0.00010763, "INCLINATION": 53.159, "RA_OF_ASC_NODE": 315.6507, "ARG_OF_PERICENTER": 72.0632, "MEAN_ANOMALY": 312.614, "EPHEMERIS_TYPE": 0, "CLASSIFICATION_TYPE": "U", "NORAD_CAT_ID": 66352, "ELEMENT_SET_NO": 999, "REV_AT_EPOCH": 556, "BSTAR": -0.030728645, "MEAN_MOTION_DOT": -0.02108869, "MEAN_MOTION_DDOT": 0}, "tle": {"line1": "1 66352U 25254E   25338.58334491 -.02108869  00000+0 -30729-1 0  9995", "line2": "2 66352  53.1590 315.6507 0001076  72.0632 312.6140 15.58272999  5568"}}, "geometry": {"type": "Point", "coordinates": [-44.64824407613188, 1.6469092540936412]}}, {"type": "Feature", "properties": {"norad_id": 66353, "name": "STARLINK-35869", "group": "last-30-days", "lat": 3.178337041739214, "lon": -43.501358935054625, "alt_km": 397.2429759985016, "timestamp": "2025-12-04T21:36:14.650693+00:00", "meta": {"OBJECT_NAME": "STARLINK-35869", "OBJECT_ID": "2025-254F", "EPOCH": "2025-12-04T14:00:01.000224", "MEAN_MOTION": 15.58272261, "ECCENTRICITY": 0.00011081, "INCLINATION": 53.1591, "RA_OF_ASC_NODE": 315.6467, "ARG_OF_PERICENTER": 76.7318, "MEAN_ANOMALY": 309.8599, "EPHEMERIS_TYPE": 0, "CLASSIFICATION_TYPE": "U", "NORAD_CAT_ID": 66353, "ELEMENT_SET_NO": 999, "REV_AT_EPOCH": 561, "BSTAR": -0.030676899, "MEAN_MOTION_DOT": -0.02105675, "MEAN_MOTION_DDOT": 0}, "tle": {"line1": "1 66353U 25254F   25338.58334491 -.02105675  00000+0 -30677-1 0  9990", "line2": "2 66353  53.1591 315.6467 0001108  76.7318 309.8599 15.58272261  5617"}}, "geometry": {"type": "Point", "coordinates": [-43.501358935054625, 3.178337041739214]}}, {"type": "Feature", "properties": {"norad_id": 66354, "name": "STARLINK-35895", "group": "last-30-days", "lat": 29.61409794532295, "lon": 109.33663758767099, "alt_km": 415.1893061204246, "timestamp": "2025-12-04T21:36:14.650703+00:00", "meta": {"OBJECT_NAME": "STARLINK-35895", "OBJECT_ID": "2025-254G", "EPOCH": "2025-12-04T14:00:01.000224", "MEAN_MOTION": 15.49292163, "ECCENTRICITY": 0.00011768, "INCLINATION": 53.1596, "RA_OF_ASC_NODE": 316.0754, "ARG_OF_PERICENTER": 62.8113, "MEAN_ANOMALY": 110.9059, "EPHEMERIS_TYPE": 0, "CLASSIFICATION_TYPE": "U", "NORAD_CAT_ID": 66354, "ELEMENT_SET_NO": 999, "REV_AT_EPOCH": 561, "BSTAR": -0.0013454007, "MEAN_MOTION_DOT": -0.00074521, "MEAN_MOTION_DDOT": 0}, "tle": {"line1": "1 66354U 25254G   25338.58334491 -.00074521  00000+0 -13454-2 0  9999", "line2": "2 66354  53.1596 316.0754 0001176  62.8113 110.9059 15.49292163  5616"}}, "geometry": {"type": "Point", "coordinates": [109.33663758767099, 29.61409794532295]}}, {"type": "Feature", "properties": {"norad_id": 66355, "name": "STARLINK-35861", "group": "last-30-days", "lat": 6.242429623677307, "lon": -41.191893965263525, "alt_km": 396.68813248610877, "timestamp": "2025-12-04T21:36:14.650716+00:00", "meta": {"OBJECT_NAME": "STARLINK-35861", "OBJECT_ID": "2025-254H", "EPOCH": "2025-12-04T14:00:01.000224", "MEAN_MOTION": 15.58277413, "ECCENTRICITY": 0.00011693, "INCLINATION": 53.159, "RA_OF_ASC_NODE": 315.6381, "ARG_OF_PERICENTER": 70.1623, "MEAN_ANOMALY": 320.2642, "EPHEMERIS_TYPE": 0, "CLASSIFICATION_TYPE": "U", "NORAD_CAT_ID": 66355, "ELEMENT_SET_NO": 999, "REV_AT_EPOCH": 561, "BSTAR": -0.030849149, "MEAN_MOTION_DOT": -0.02116606, "MEAN_MOTION_DDOT": 0}, "tle": {"line1": "1 66355U 25254H   25338.58334491 -.02116606  00000+0 -30849-1 0  9999", "line2": "2 66355  53.1590 315.6381 0001169  70.1623 320.2642 15.58277413  5617"}}, "geometry": {"type": "Point", "coordinates": [-41.191893965263525, 6.242429623677307]}}]}